[{"OBJECT_NAME":"FLOCK 4G-21","OBJECT_ID":"2025-009AU","EPOCH":"2026-03-09T04:40:37.351200","MEAN_MOTION":15.28381075,"ECCENTRICITY":4.655e-5,"INCLINATION":97.4032,"RA_OF_ASC_NODE":151.1274,"ARG_OF_PERICENTER":329.5782,"MEAN_ANOMALY":30.5431,"EPHEMERIS_TYPE":0,"CLASSIFICATION_TYPE":"U","NORAD_CAT_ID":62651,"ELEMENT_SET_NO":999,"REV_AT_EPOCH":6367,"BSTAR":0.00049618643,"MEAN_MOTION_DOT":0.00013648,"MEAN_MOTION_DDOT":0},{"OBJECT_NAME":"STARLINK-35118","OBJECT_ID":"2025-281L","EPOCH":"2026-03-08T04:20:25.795968","MEAN_MOTION":15.27631687,"ECCENTRICITY":0.00016019,"INCLINATION":43.0039,"RA_OF_ASC_NODE":352.0942,"ARG_OF_PERICENTER":279.6952,"MEAN_ANOMALY":80.3719,"EPHEMERIS_TYPE":0,"CLASSIFICATION_TYPE":"U","NORAD_CAT_ID":66858,"ELEMENT_SET_NO":999,"REV_AT_EPOCH":1595,"BSTAR":0.0014204283,"MEAN_MOTION_DOT":0.00039094,"MEAN_MOTION_DDOT":0}]
